LEMUR-2-AMANDA-SVANTE   
1 48269U 21034B   26068.77637527  .00030872  00000+0  11134-2 0  9996
2 48269  97.5829 144.8625 0002703 205.4721 154.6385 15.28469003265849
STARLINK-35874          
1 66962U 25288D   26068.24006589  .00023725  00000+0  86914-3 0  9999
2 66962  43.0023  26.4182 0001840 276.9906  83.0737 15.27570001 15213
